SL-3 R/B                
1 13403U 82079B   26094.91298678  .00006899  00000+0  27161-3 0  9999
2 13403  81.1473 162.1118 0025373  78.7840 281.6244 15.25161678381697
SL-14 R/B               
1 13553U 82092B   26094.56696921  .00000670  00000+0  72393-4 0  9993
2 13553  82.5650 117.1895 0019470 211.5050 266.9219 14.86691561332776
SL-3 R/B                
1 13819U 83010B   26094.70166774  .00018033  00000+0  35142-3 0  9995
2 13819  81.1031 330.3377 0015387 320.2182  39.7934 15.47271831361965
SL-3 R/B                
1 14208U 83075B   26094.95955596  .00013946  00000+0  35900-3 0  9994
2 14208  97.6136 100.5443 0022912 132.5226 227.7959 15.39083669334194
COSMOS 1536             
1 14699U 84013A   26094.91775404  .00008842  00000+0  36046-3 0  9996
2 14699  82.5422  81.7635 0014166 181.8485 178.2702 15.24216005276612
SL-14 R/B               
1 14820U 84027B   26094.81983432  .00000745  00000+0  82303-4 0  9990
2 14820  82.5429 220.5054 0016645 244.8951 115.0539 14.86006771251518
SL-8 R/B                
1 15483U 85006B   26094.76739528  .00000445  00000+0  15618-3 0  9994
2 15483  74.0462 213.1614 0017454 123.1031  27.3503 14.37803171157778
SL-12 R/B(2)            
1 15772U 85042D   26094.93332769  .00000183  00000+0  10369-3 0  9997
2 15772  71.1101  32.2814 0032841  84.5474 337.8922 14.21990486118126
SL-14 R/B               
1 15945U 85069B   26094.79664861  .00000759  00000+0  82842-4 0  9998
2 15945  82.5304   0.3915 0020294 104.6700 255.6768 14.86463429176719
SL-16 R/B               
1 16182U 85097B   26094.96606346 -.00000145  00000+0 -48719-4 0  9992
2 16182  71.0009  85.2315 0009154 228.2568 162.3715 14.16602442 90951
SL-14 R/B               
1 16496U 86006B   26094.90159771  .00001265  00000+0  13162-3 0  9995
2 16496  82.5263 235.0632 0076377 184.7222 175.3285 14.86863128153109
COSMOS 1743             
1 16719U 86034A   26094.88350779  .00051517  00000+0  61075-3 0  9993
2 16719  82.5319  46.2938 0005752 153.2780 206.8774 15.60992528184331
