CCSDS_OMM_VERS = 2.0
CREATION_DATE  = 
ORIGINATOR     = 

OBJECT_NAME    = SL-3 R/B
OBJECT_ID      = 1982-079B
CENTER_NAME    = EARTH
REF_FRAME      = TEME
TIME_SYSTEM    = UTC
MEAN_ELEMENT_THEORY = SGP/SGP4

EPOCH          = 2026-04-04T21:54:42.057792
MEAN_MOTION    = 15.25161678
ECCENTRICITY   = .00253732
INCLINATION    = 81.1473
RA_OF_ASC_NODE = 162.1118
ARG_OF_PERICENTER = 78.7840
MEAN_ANOMALY   = 281.6244

EPHEMERIS_TYPE = 0
CLASSIFICATION_TYPE = U
NORAD_CAT_ID   = 13403
ELEMENT_SET_NO = 999
REV_AT_EPOCH   = 38169
BSTAR          = .27160845E-3
MEAN_MOTION_DOT = .6899E-4
MEAN_MOTION_DDOT = 0

CCSDS_OMM_VERS = 2.0
CREATION_DATE  = 
ORIGINATOR     = 

OBJECT_NAME    = SL-14 R/B
OBJECT_ID      = 1982-092B
CENTER_NAME    = EARTH
REF_FRAME      = TEME
TIME_SYSTEM    = UTC
MEAN_ELEMENT_THEORY = SGP/SGP4

EPOCH          = 2026-04-04T13:36:26.139744
MEAN_MOTION    = 14.86691561
ECCENTRICITY   = .001947
INCLINATION    = 82.5650
RA_OF_ASC_NODE = 117.1895
ARG_OF_PERICENTER = 211.5050
MEAN_ANOMALY   = 266.9219

EPHEMERIS_TYPE = 0
CLASSIFICATION_TYPE = U
NORAD_CAT_ID   = 13553
ELEMENT_SET_NO = 999
REV_AT_EPOCH   = 33277
BSTAR          = .72393E-4
MEAN_MOTION_DOT = .67E-5
MEAN_MOTION_DDOT = 0

CCSDS_OMM_VERS = 2.0
CREATION_DATE  = 
ORIGINATOR     = 

OBJECT_NAME    = SL-3 R/B
OBJECT_ID      = 1983-010B
CENTER_NAME    = EARTH
REF_FRAME      = TEME
TIME_SYSTEM    = UTC
MEAN_ELEMENT_THEORY = SGP/SGP4

EPOCH          = 2026-04-04T16:50:24.092736
MEAN_MOTION    = 15.47271831
ECCENTRICITY   = .00153879
INCLINATION    = 81.1031
RA_OF_ASC_NODE = 330.3377
ARG_OF_PERICENTER = 320.2182
MEAN_ANOMALY   = 39.7934

EPHEMERIS_TYPE = 0
CLASSIFICATION_TYPE = U
NORAD_CAT_ID   = 13819
ELEMENT_SET_NO = 999
REV_AT_EPOCH   = 36196
BSTAR          = .35141708E-3
MEAN_MOTION_DOT = .18033E-3
MEAN_MOTION_DDOT = 0

CCSDS_OMM_VERS = 2.0
CREATION_DATE  = 
ORIGINATOR     = 

OBJECT_NAME    = SL-3 R/B
OBJECT_ID      = 1983-075B
CENTER_NAME    = EARTH
REF_FRAME      = TEME
TIME_SYSTEM    = UTC
MEAN_ELEMENT_THEORY = SGP/SGP4

EPOCH          = 2026-04-04T23:01:45.634944
MEAN_MOTION    = 15.39083669
ECCENTRICITY   = .00229128
INCLINATION    = 97.6136
RA_OF_ASC_NODE = 100.5443
ARG_OF_PERICENTER = 132.5226
MEAN_ANOMALY   = 227.7959

EPHEMERIS_TYPE = 0
CLASSIFICATION_TYPE = U
NORAD_CAT_ID   = 14208
ELEMENT_SET_NO = 999
REV_AT_EPOCH   = 33419
BSTAR          = .35899884E-3
MEAN_MOTION_DOT = .13946E-3
MEAN_MOTION_DDOT = 0

CCSDS_OMM_VERS = 2.0
CREATION_DATE  = 
ORIGINATOR     = 

OBJECT_NAME    = COSMOS 1536
OBJECT_ID      = 1984-013A
CENTER_NAME    = EARTH
REF_FRAME      = TEME
TIME_SYSTEM    = UTC
MEAN_ELEMENT_THEORY = SGP/SGP4

EPOCH          = 2026-04-04T22:01:33.949056
MEAN_MOTION    = 15.24216005
ECCENTRICITY   = .00141661
INCLINATION    = 82.5422
RA_OF_ASC_NODE = 81.7635
ARG_OF_PERICENTER = 181.8485
MEAN_ANOMALY   = 178.2702

EPHEMERIS_TYPE = 0
CLASSIFICATION_TYPE = U
NORAD_CAT_ID   = 14699
ELEMENT_SET_NO = 999
REV_AT_EPOCH   = 27661
BSTAR          = .3604645E-3
MEAN_MOTION_DOT = .8842E-4
MEAN_MOTION_DDOT = 0

CCSDS_OMM_VERS = 2.0
CREATION_DATE  = 
ORIGINATOR     = 

OBJECT_NAME    = SL-14 R/B
OBJECT_ID      = 1984-027B
CENTER_NAME    = EARTH
REF_FRAME      = TEME
TIME_SYSTEM    = UTC
MEAN_ELEMENT_THEORY = SGP/SGP4

EPOCH          = 2026-04-04T19:40:33.685248
MEAN_MOTION    = 14.86006771
ECCENTRICITY   = .00166457
INCLINATION    = 82.5429
RA_OF_ASC_NODE = 220.5054
ARG_OF_PERICENTER = 244.8951
MEAN_ANOMALY   = 115.0539

EPHEMERIS_TYPE = 0
CLASSIFICATION_TYPE = U
NORAD_CAT_ID   = 14820
ELEMENT_SET_NO = 999
REV_AT_EPOCH   = 25151
BSTAR          = .82302797E-4
MEAN_MOTION_DOT = .745E-5
MEAN_MOTION_DDOT = 0

CCSDS_OMM_VERS = 2.0
CREATION_DATE  = 
ORIGINATOR     = 

OBJECT_NAME    = SL-8 R/B
OBJECT_ID      = 1985-006B
CENTER_NAME    = EARTH
REF_FRAME      = TEME
TIME_SYSTEM    = UTC
MEAN_ELEMENT_THEORY = SGP/SGP4

EPOCH          = 2026-04-04T18:25:02.952192
MEAN_MOTION    = 14.37803171
ECCENTRICITY   = .00174541
INCLINATION    = 74.0462
RA_OF_ASC_NODE = 213.1614
ARG_OF_PERICENTER = 123.1031
MEAN_ANOMALY   = 27.3503

EPHEMERIS_TYPE = 0
CLASSIFICATION_TYPE = U
NORAD_CAT_ID   = 15483
ELEMENT_SET_NO = 999
REV_AT_EPOCH   = 15777
BSTAR          = .15618152E-3
MEAN_MOTION_DOT = .445E-5
MEAN_MOTION_DDOT = 0

CCSDS_OMM_VERS = 2.0
CREATION_DATE  = 
ORIGINATOR     = 

OBJECT_NAME    = SL-12 R/B(2)
OBJECT_ID      = 1985-042D
CENTER_NAME    = EARTH
REF_FRAME      = TEME
TIME_SYSTEM    = UTC
MEAN_ELEMENT_THEORY = SGP/SGP4

EPOCH          = 2026-04-04T22:23:59.512416
MEAN_MOTION    = 14.21990486
ECCENTRICITY   = .00328412
INCLINATION    = 71.1101
RA_OF_ASC_NODE = 32.2814
ARG_OF_PERICENTER = 84.5474
MEAN_ANOMALY   = 337.8922

EPHEMERIS_TYPE = 0
CLASSIFICATION_TYPE = U
NORAD_CAT_ID   = 15772
ELEMENT_SET_NO = 999
REV_AT_EPOCH   = 11812
BSTAR          = .10369438E-3
MEAN_MOTION_DOT = .183E-5
MEAN_MOTION_DDOT = 0

CCSDS_OMM_VERS = 2.0
CREATION_DATE  = 
ORIGINATOR     = 

OBJECT_NAME    = SL-14 R/B
OBJECT_ID      = 1985-069B
CENTER_NAME    = EARTH
REF_FRAME      = TEME
TIME_SYSTEM    = UTC
MEAN_ELEMENT_THEORY = SGP/SGP4

EPOCH          = 2026-04-04T19:07:10.439904
MEAN_MOTION    = 14.86463429
ECCENTRICITY   = .00202943
INCLINATION    = 82.5304
RA_OF_ASC_NODE = 0.3915
ARG_OF_PERICENTER = 104.6700
MEAN_ANOMALY   = 255.6768

EPHEMERIS_TYPE = 0
CLASSIFICATION_TYPE = U
NORAD_CAT_ID   = 15945
ELEMENT_SET_NO = 999
REV_AT_EPOCH   = 17671
BSTAR          = .82842415E-4
MEAN_MOTION_DOT = .759E-5
MEAN_MOTION_DDOT = 0

CCSDS_OMM_VERS = 2.0
CREATION_DATE  = 
ORIGINATOR     = 

OBJECT_NAME    = SL-16 R/B
OBJECT_ID      = 1985-097B
CENTER_NAME    = EARTH
REF_FRAME      = TEME
TIME_SYSTEM    = UTC
MEAN_ELEMENT_THEORY = SGP/SGP4

EPOCH          = 2026-04-04T23:11:07.882944
MEAN_MOTION    = 14.16602442
ECCENTRICITY   = .0009154
INCLINATION    = 71.0009
RA_OF_ASC_NODE = 85.2315
ARG_OF_PERICENTER = 228.2568
MEAN_ANOMALY   = 162.3715

EPHEMERIS_TYPE = 0
CLASSIFICATION_TYPE = U
NORAD_CAT_ID   = 16182
ELEMENT_SET_NO = 999
REV_AT_EPOCH   = 9095
BSTAR          = -.48718861E-4
MEAN_MOTION_DOT = -.145E-5
MEAN_MOTION_DDOT = 0

CCSDS_OMM_VERS = 2.0
CREATION_DATE  = 
ORIGINATOR     = 

OBJECT_NAME    = SL-14 R/B
OBJECT_ID      = 1986-006B
CENTER_NAME    = EARTH
REF_FRAME      = TEME
TIME_SYSTEM    = UTC
MEAN_ELEMENT_THEORY = SGP/SGP4

EPOCH          = 2026-04-04T21:38:18.042144
MEAN_MOTION    = 14.86863128
ECCENTRICITY   = .00763779
INCLINATION    = 82.5263
RA_OF_ASC_NODE = 235.0632
ARG_OF_PERICENTER = 184.7222
MEAN_ANOMALY   = 175.3285

EPHEMERIS_TYPE = 0
CLASSIFICATION_TYPE = U
NORAD_CAT_ID   = 16496
ELEMENT_SET_NO = 999
REV_AT_EPOCH   = 15310
BSTAR          = .13162434E-3
MEAN_MOTION_DOT = .1265E-4
MEAN_MOTION_DDOT = 0

CCSDS_OMM_VERS = 2.0
CREATION_DATE  = 
ORIGINATOR     = 

OBJECT_NAME    = COSMOS 1743
OBJECT_ID      = 1986-034A
CENTER_NAME    = EARTH
REF_FRAME      = TEME
TIME_SYSTEM    = UTC
MEAN_ELEMENT_THEORY = SGP/SGP4

EPOCH          = 2026-04-04T21:12:15.073056
MEAN_MOTION    = 15.60992528
ECCENTRICITY   = .00057528
INCLINATION    = 82.5319
RA_OF_ASC_NODE = 46.2938
ARG_OF_PERICENTER = 153.2780
MEAN_ANOMALY   = 206.8774

EPHEMERIS_TYPE = 0
CLASSIFICATION_TYPE = U
NORAD_CAT_ID   = 16719
ELEMENT_SET_NO = 999
REV_AT_EPOCH   = 18433
BSTAR          = .61075178E-3
MEAN_MOTION_DOT = .51517E-3
MEAN_MOTION_DDOT = 0

